[{"OBJECT_NAME":"HXMT (HUIYAN)","OBJECT_ID":"2017-034A","EPOCH":"2026-03-22T02:03:33.748128","MEAN_MOTION":15.17620583,"ECCENTRICITY":0.00327592,"INCLINATION":43.0145,"RA_OF_ASC_NODE":307.7485,"ARG_OF_PERICENTER":311.4401,"MEAN_ANOMALY":48.3634,"EPHEMERIS_TYPE":0,"CLASSIFICATION_TYPE":"U","NORAD_CAT_ID":42758,"ELEMENT_SET_NO":999,"REV_AT_EPOCH":48442,"BSTAR":0.00035772459,"MEAN_MOTION_DOT":7.192e-5,"MEAN_MOTION_DDOT":0},{"OBJECT_NAME":"SAOCOM 1A","OBJECT_ID":"2018-076A","EPOCH":"2026-03-22T05:59:57.740640","MEAN_MOTION":14.82151113,"ECCENTRICITY":0.00014618,"INCLINATION":97.8893,"RA_OF_ASC_NODE":269.2451,"ARG_OF_PERICENTER":86.3657,"MEAN_ANOMALY":273.7723,"EPHEMERIS_TYPE":0,"CLASSIFICATION_TYPE":"U","NORAD_CAT_ID":43641,"ELEMENT_SET_NO":999,"REV_AT_EPOCH":40322,"BSTAR":-1.3752069e-5,"MEAN_MOTION_DOT":-1.62e-6,"MEAN_MOTION_DDOT":0},{"OBJECT_NAME":"H-2A R/B","OBJECT_ID":"2018-084L","EPOCH":"2026-03-22T04:40:54.600096","MEAN_MOTION":15.41859257,"ECCENTRICITY":0.00243126,"INCLINATION":98.8707,"RA_OF_ASC_NODE":301.2607,"ARG_OF_PERICENTER":342.1865,"MEAN_ANOMALY":17.8522,"EPHEMERIS_TYPE":0,"CLASSIFICATION_TYPE":"U","NORAD_CAT_ID":43682,"ELEMENT_SET_NO":999,"REV_AT_EPOCH":40770,"BSTAR":0.00051815492,"MEAN_MOTION_DOT":0.00022141,"MEAN_MOTION_DDOT":0},{"OBJECT_NAME":"SAOCOM 1B","OBJECT_ID":"2020-059A","EPOCH":"2026-03-22T06:44:54.980160","MEAN_MOTION":14.8214949,"ECCENTRICITY":0.00015081,"INCLINATION":97.8892,"RA_OF_ASC_NODE":268.3738,"ARG_OF_PERICENTER":90.3522,"MEAN_ANOMALY":269.7864,"EPHEMERIS_TYPE":0,"CLASSIFICATION_TYPE":"U","NORAD_CAT_ID":46265,"ELEMENT_SET_NO":999,"REV_AT_EPOCH":30061,"BSTAR":0.00010007422,"MEAN_MOTION_DOT":7.44e-6,"MEAN_MOTION_DDOT":0},{"OBJECT_NAME":"CSS (TIANHE)","OBJECT_ID":"2021-035A","EPOCH":"2026-03-22T06:07:34.959072","MEAN_MOTION":15.61310205,"ECCENTRICITY":0.00052339,"INCLINATION":41.4659,"RA_OF_ASC_NODE":131.6673,"ARG_OF_PERICENTER":353.6422,"MEAN_ANOMALY":6.4349,"EPHEMERIS_TYPE":0,"CLASSIFICATION_TYPE":"U","NORAD_CAT_ID":48274,"ELEMENT_SET_NO":999,"REV_AT_EPOCH":27957,"BSTAR":0.00029762829,"MEAN_MOTION_DOT":0.00025791,"MEAN_MOTION_DDOT":0},{"OBJECT_NAME":"COSMOS 2550","OBJECT_ID":"2021-056A","EPOCH":"2026-03-20T16:01:39.963360","MEAN_MOTION":15.33831857,"ECCENTRICITY":0.00081995,"INCLINATION":67.1449,"RA_OF_ASC_NODE":7.6743,"ARG_OF_PERICENTER":268.9235,"MEAN_ANOMALY":91.098,"EPHEMERIS_TYPE":0,"CLASSIFICATION_TYPE":"U","NORAD_CAT_ID":48865,"ELEMENT_SET_NO":999,"REV_AT_EPOCH":26514,"BSTAR":1.25924e-7,"MEAN_MOTION_DOT":-1.88e-6,"MEAN_MOTION_DDOT":0},{"OBJECT_NAME":"CZ-2C R/B","OBJECT_ID":"2022-058K","EPOCH":"2026-03-22T04:10:52.438656","MEAN_MOTION":15.55108224,"ECCENTRICITY":0.00417342,"INCLINATION":50.1874,"RA_OF_ASC_NODE":254.0237,"ARG_OF_PERICENTER":254.2054,"MEAN_ANOMALY":105.4313,"EPHEMERIS_TYPE":0,"CLASSIFICATION_TYPE":"U","NORAD_CAT_ID":52794,"ELEMENT_SET_NO":999,"REV_AT_EPOCH":21207,"BSTAR":0.00056052215,"MEAN_MOTION_DOT":0.00039721,"MEAN_MOTION_DDOT":0},{"OBJECT_NAME":"CZ-2C R/B","OBJECT_ID":"2022-132E","EPOCH":"2026-03-21T12:58:30.684288","MEAN_MOTION":15.62906527,"ECCENTRICITY":0.001922,"INCLINATION":97.2959,"RA_OF_ASC_NODE":84.2267,"ARG_OF_PERICENTER":53.5063,"MEAN_ANOMALY":306.7963,"EPHEMERIS_TYPE":0,"CLASSIFICATION_TYPE":"U","NORAD_CAT_ID":54039,"ELEMENT_SET_NO":999,"REV_AT_EPOCH":19222,"BSTAR":0.00068094667,"MEAN_MOTION_DOT":0.00062311,"MEAN_MOTION_DDOT":0},{"OBJECT_NAME":"GSLV R/B","OBJECT_ID":"2022-138AN","EPOCH":"2026-03-22T06:56:36.256128","MEAN_MOTION":14.96853905,"ECCENTRICITY":0.00240471,"INCLINATION":87.3866,"RA_OF_ASC_NODE":162.1448,"ARG_OF_PERICENTER":104.7824,"MEAN_ANOMALY":255.6075,"EPHEMERIS_TYPE":0,"CLASSIFICATION_TYPE":"U","NORAD_CAT_ID":54149,"ELEMENT_SET_NO":999,"REV_AT_EPOCH":18581,"BSTAR":0.00032243524,"MEAN_MOTION_DOT":3.744e-5,"MEAN_MOTION_DDOT":0},{"OBJECT_NAME":"XRISM","OBJECT_ID":"2023-137A","EPOCH":"2026-03-22T01:19:13.384128","MEAN_MOTION":15.11631545,"ECCENTRICITY":0.00079587,"INCLINATION":31.0012,"RA_OF_ASC_NODE":203.6732,"ARG_OF_PERICENTER":163.6283,"MEAN_ANOMALY":196.4614,"EPHEMERIS_TYPE":0,"CLASSIFICATION_TYPE":"U","NORAD_CAT_ID":57800,"ELEMENT_SET_NO":999,"REV_AT_EPOCH":13966,"BSTAR":0.00036765517,"MEAN_MOTION_DOT":6.506e-5,"MEAN_MOTION_DDOT":0},{"OBJECT_NAME":"ACS3","OBJECT_ID":"2024-077B","EPOCH":"2026-03-22T02:18:23.716512","MEAN_MOTION":13.90174926,"ECCENTRICITY":0.00694696,"INCLINATION":97.2009,"RA_OF_ASC_NODE":19.4199,"ARG_OF_PERICENTER":47.5364,"MEAN_ANOMALY":313.1645,"EPHEMERIS_TYPE":0,"CLASSIFICATION_TYPE":"U","NORAD_CAT_ID":59588,"ELEMENT_SET_NO":999,"REV_AT_EPOCH":9592,"BSTAR":0.023700135,"MEAN_MOTION_DOT":0.00029964,"MEAN_MOTION_DDOT":0},{"OBJECT_NAME":"SZ-21 MODULE","OBJECT_ID":"2025-246C","EPOCH":"2026-03-21T20:22:02.555616","MEAN_MOTION":15.69453239,"ECCENTRICITY":5.056e-5,"INCLINATION":41.4733,"RA_OF_ASC_NODE":128.4589,"ARG_OF_PERICENTER":233.4003,"MEAN_ANOMALY":126.6793,"EPHEMERIS_TYPE":0,"CLASSIFICATION_TYPE":"U","NORAD_CAT_ID":66515,"ELEMENT_SET_NO":999,"REV_AT_EPOCH":1998,"BSTAR":0.00036504589,"MEAN_MOTION_DOT":0.00044117,"MEAN_MOTION_DDOT":0}]
