TLE2=2 42758  43.0145 307.7485 0032759 311.4401  48.3634 15.17620583484427
TLE2=2 66515  41.4733 128.4589 0000505 233.4003 126.6793 15.69453239 19987
TLE2=2 54039  97.2959  84.2267 0019220  53.5063 306.7963 15.62906527192222
TLE2=2 52794  50.1874 254.0237 0041734 254.2054 105.4313 15.55108224212070
TLE2=2 43641  97.8893 269.2451 0001461  86.3657 273.7723 14.82151113403229
TLE2=2 57800  31.0012 203.6732 0007958 163.6283 196.4614 15.11631545139668
TLE2=2 43682  98.8707 301.2607 0024312 342.1865  17.8522 15.41859257407704
TLE2=2 48865  67.1449   7.6743 0008199 268.9235  91.0980 15.33831857265142
TLE2=2 54149  87.3866 162.1448 0024047 104.7824 255.6075 14.96853905185815
TLE2=2 48274  41.4659 131.6673 0005233 353.6422   6.4349 15.61310205279571
TLE2=2 59588  97.2009  19.4199 0069469  47.5364 313.1645 13.90174926 95920
TLE2=2 46265  97.8892 268.3738 0001508  90.3522 269.7864 14.82149490300614
